[
  {
    "OBJECT_NAME": "STARLINK-3960",
    "OBJECT_ID": "2022-053D",
    "EPOCH": "2025-05-10T13:50:21.302880",
    "MEAN_MOTION": 15.08859634,
    "ECCENTRICITY": 8.45e-05,
    "INCLINATION": 53.2166,
    "RA_OF_ASC_NODE": 74.7943,
    "ARG_OF_PERICENTER": 101.0082,
    "MEAN_ANOMALY": 259.1005,
    "EPHEMERIS_TYPE": 0,
    "CLASSIFICATION_TYPE": "U",
    "NORAD_CAT_ID": 52659,
    "ELEMENT_SET_NO": 999,
    "REV_AT_EPOCH": 16547,
    "BSTAR": -0.00055474,
    "MEAN_MOTION_DOT": -9.11e-05,
    "MEAN_MOTION_DDOT": 0
  },
  {
    "OBJECT_NAME": "STARLINK-4081",
    "OBJECT_ID": "2022-053E",
    "EPOCH": "2025-05-10T13:45:05.345856",
    "MEAN_MOTION": 15.08845915,
    "ECCENTRICITY": 0.0001382,
    "INCLINATION": 53.218,
    "RA_OF_ASC_NODE": 74.8607,
    "ARG_OF_PERICENTER": 87.6834,
    "MEAN_ANOMALY": 272.4316,
    "EPHEMERIS_TYPE": 0,
    "CLASSIFICATION_TYPE": "U",
    "NORAD_CAT_ID": 52660,
    "ELEMENT_SET_NO": 999,
    "REV_AT_EPOCH": 16535,
    "BSTAR": 8.181e-05,
    "MEAN_MOTION_DOT": 1.015e-05,
    "MEAN_MOTION_DDOT": 0
  },
  {
    "OBJECT_NAME": "STARLINK-4042",
    "OBJECT_ID": "2022-053F",
    "EPOCH": "2025-05-10T13:39:47.557152",
    "MEAN_MOTION": 15.08836028,
    "ECCENTRICITY": 0.0001583,
    "INCLINATION": 53.2179,
    "RA_OF_ASC_NODE": 74.8762,
    "ARG_OF_PERICENTER": 94.9086,
    "MEAN_ANOMALY": 265.2087,
    "EPHEMERIS_TYPE": 0,
    "CLASSIFICATION_TYPE": "U",
    "NORAD_CAT_ID": 52661,
    "ELEMENT_SET_NO": 999,
    "REV_AT_EPOCH": 16528,
    "BSTAR": 7.0081e-05,
    "MEAN_MOTION_DOT": 8.27e-06,
    "MEAN_MOTION_DDOT": 0
  },
  {
    "OBJECT_NAME": "STARLINK-4044",
    "OBJECT_ID": "2022-053G",
    "EPOCH": "2025-05-10T13:29:11.540832",
    "MEAN_MOTION": 15.08841892,
    "ECCENTRICITY": 0.0001566,
    "INCLINATION": 53.218,
    "RA_OF_ASC_NODE": 74.9114,
    "ARG_OF_PERICENTER": 81.0886,
    "MEAN_ANOMALY": 279.0284,
    "EPHEMERIS_TYPE": 0,
    "CLASSIFICATION_TYPE": "U",
    "NORAD_CAT_ID": 52662,
    "ELEMENT_SET_NO": 999,
    "REV_AT_EPOCH": 16528,
    "BSTAR": 7.3715e-05,
    "MEAN_MOTION_DOT": 8.85e-06,
    "MEAN_MOTION_DDOT": 0
  },
  {
    "OBJECT_NAME": "STARLINK-4037",
    "OBJECT_ID": "2022-053H",
    "EPOCH": "2025-05-10T13:23:53.981952",
    "MEAN_MOTION": 15.08831384,
    "ECCENTRICITY": 0.0001384,
    "INCLINATION": 53.2174,
    "RA_OF_ASC_NODE": 74.9307,
    "ARG_OF_PERICENTER": 90.9653,
    "MEAN_ANOMALY": 269.1498,
    "EPHEMERIS_TYPE": 0,
    "CLASSIFICATION_TYPE": "U",
    "NORAD_CAT_ID": 52663,
    "ELEMENT_SET_NO": 999,
    "REV_AT_EPOCH": 16528,
    "BSTAR": 0.00012723,
    "MEAN_MOTION_DOT": 1.737e-05,
    "MEAN_MOTION_DDOT": 0
  },
  {
    "OBJECT_NAME": "STARLINK-4070",
    "OBJECT_ID": "2022-053J",
    "EPOCH": "2025-05-10T13:34:29.866944",
    "MEAN_MOTION": 15.08838009,
    "ECCENTRICITY": 0.0001501,
    "INCLINATION": 53.2173,
    "RA_OF_ASC_NODE": 74.8955,
    "ARG_OF_PERICENTER": 87.5387,
    "MEAN_ANOMALY": 272.5777,
    "EPHEMERIS_TYPE": 0,
    "CLASSIFICATION_TYPE": "U",
    "NORAD_CAT_ID": 52664,
    "ELEMENT_SET_NO": 999,
    "REV_AT_EPOCH": 16528,
    "BSTAR": -1.0385e-05,
    "MEAN_MOTION_DOT": -4.53e-06,
    "MEAN_MOTION_DDOT": 0
  },
  {
    "OBJECT_NAME": "STARLINK-4064",
    "OBJECT_ID": "2022-053K",
    "EPOCH": "2025-05-10T13:08:00.136320",
    "MEAN_MOTION": 15.08836745,
    "ECCENTRICITY": 0.0001545,
    "INCLINATION": 53.219,
    "RA_OF_ASC_NODE": 74.982,
    "ARG_OF_PERICENTER": 96.5564,
    "MEAN_ANOMALY": 263.5604,
    "EPHEMERIS_TYPE": 0,
    "CLASSIFICATION_TYPE": "U",
    "NORAD_CAT_ID": 52665,
    "ELEMENT_SET_NO": 999,
    "REV_AT_EPOCH": 16528,
    "BSTAR": 2.7949e-06,
    "MEAN_MOTION_DOT": -2.44e-06,
    "MEAN_MOTION_DDOT": 0
  },
  {
    "OBJECT_NAME": "STARLINK-4079",
    "OBJECT_ID": "2022-053L",
    "EPOCH": "2025-05-10T02:53:13.264224",
    "MEAN_MOTION": 15.08845067,
    "ECCENTRICITY": 0.0001449,
    "INCLINATION": 53.2189,
    "RA_OF_ASC_NODE": 76.5064,
    "ARG_OF_PERICENTER": 94.2747,
    "MEAN_ANOMALY": 265.841,
    "EPHEMERIS_TYPE": 0,
    "CLASSIFICATION_TYPE": "U",
    "NORAD_CAT_ID": 52666,
    "ELEMENT_SET_NO": 999,
    "REV_AT_EPOCH": 16522,
    "BSTAR": 3.4323e-05,
    "MEAN_MOTION_DOT": 2.58e-06,
    "MEAN_MOTION_DDOT": 0
  },
  {
    "OBJECT_NAME": "STARLINK-4076",
    "OBJECT_ID": "2022-053M",
    "EPOCH": "2025-05-10T06:41:09.152160",
    "MEAN_MOTION": 15.08840511,
    "ECCENTRICITY": 0.0001454,
    "INCLINATION": 53.2173,
    "RA_OF_ASC_NODE": 76.1846,
    "ARG_OF_PERICENTER": 94.904,
    "MEAN_ANOMALY": 265.2118,
    "EPHEMERIS_TYPE": 0,
    "CLASSIFICATION_TYPE": "U",
    "NORAD_CAT_ID": 52667,
    "ELEMENT_SET_NO": 999,
    "REV_AT_EPOCH": 16524,
    "BSTAR": 8.6569e-05,
    "MEAN_MOTION_DOT": 1.09e-05,
    "MEAN_MOTION_DDOT": 0
  },
  {
    "OBJECT_NAME": "STARLINK-4067",
    "OBJECT_ID": "2022-053N",
    "EPOCH": "2025-05-10T13:13:17.943168",
    "MEAN_MOTION": 15.08835344,
    "ECCENTRICITY": 0.0001484,
    "INCLINATION": 53.2181,
    "RA_OF_ASC_NODE": 74.9641,
    "ARG_OF_PERICENTER": 97.8198,
    "MEAN_ANOMALY": 262.2963,
    "EPHEMERIS_TYPE": 0,
    "CLASSIFICATION_TYPE": "U",
    "NORAD_CAT_ID": 52668,
    "ELEMENT_SET_NO": 999,
    "REV_AT_EPOCH": 16528,
    "BSTAR": 5.1064e-05,
    "MEAN_MOTION_DOT": 5.25e-06,
    "MEAN_MOTION_DDOT": 0
  },
  {
    "OBJECT_NAME": "STARLINK-3972",
    "OBJECT_ID": "2022-053P",
    "EPOCH": "2025-05-10T12:46:47.742528",
    "MEAN_MOTION": 15.08847364,
    "ECCENTRICITY": 0.000128,
    "INCLINATION": 53.2175,
    "RA_OF_ASC_NODE": 75.0454,
    "ARG_OF_PERICENTER": 88.7203,
    "MEAN_ANOMALY": 271.3936,
    "EPHEMERIS_TYPE": 0,
    "CLASSIFICATION_TYPE": "U",
    "NORAD_CAT_ID": 52669,
    "ELEMENT_SET_NO": 999,
    "REV_AT_EPOCH": 16527,
    "BSTAR": -3.7084e-05,
    "MEAN_MOTION_DOT": -8.78e-06,
    "MEAN_MOTION_DDOT": 0
  },
  {
    "OBJECT_NAME": "STARLINK-4075",
    "OBJECT_ID": "2022-053Q",
    "EPOCH": "2025-05-10T13:18:36.467136",
    "MEAN_MOTION": 15.08838614,
    "ECCENTRICITY": 0.0001421,
    "INCLINATION": 53.2179,
    "RA_OF_ASC_NODE": 75.0117,
    "ARG_OF_PERICENTER": 90.5783,
    "MEAN_ANOMALY": 269.5372,
    "EPHEMERIS_TYPE": 0,
    "CLASSIFICATION_TYPE": "U",
    "NORAD_CAT_ID": 52670,
    "ELEMENT_SET_NO": 999,
    "REV_AT_EPOCH": 16485,
    "BSTAR": 2.9192e-05,
    "MEAN_MOTION_DOT": 1.77e-06,
    "MEAN_MOTION_DDOT": 0
  },
  {
    "OBJECT_NAME": "STARLINK-4071",
    "OBJECT_ID": "2022-053R",
    "EPOCH": "2025-05-10T01:33:48.305088",
    "MEAN_MOTION": 15.08845482,
    "ECCENTRICITY": 0.0001514,
    "INCLINATION": 53.2165,
    "RA_OF_ASC_NODE": 77.1417,
    "ARG_OF_PERICENTER": 95.7911,
    "MEAN_ANOMALY": 264.3254,
    "EPHEMERIS_TYPE": 0,
    "CLASSIFICATION_TYPE": "U",
    "NORAD_CAT_ID": 52671,
    "ELEMENT_SET_NO": 999,
    "REV_AT_EPOCH": 16520,
    "BSTAR": -3.6867e-05,
    "MEAN_MOTION_DOT": -8.75e-06,
    "MEAN_MOTION_DDOT": 0
  },
  {
    "OBJECT_NAME": "STARLINK-4073",
    "OBJECT_ID": "2022-053S",
    "EPOCH": "2025-05-10T03:25:05.436192",
    "MEAN_MOTION": 15.0883653,
    "ECCENTRICITY": 0.0001834,
    "INCLINATION": 53.2148,
    "RA_OF_ASC_NODE": 76.7936,
    "ARG_OF_PERICENTER": 88.3734,
    "MEAN_ANOMALY": 271.7468,
    "EPHEMERIS_TYPE": 0,
    "CLASSIFICATION_TYPE": "U",
    "NORAD_CAT_ID": 52672,
    "ELEMENT_SET_NO": 999,
    "REV_AT_EPOCH": 16521,
    "BSTAR": -0.00016769,
    "MEAN_MOTION_DOT": -2.956e-05,
    "MEAN_MOTION_DDOT": 0
  }
]