STARLINK-3960           
1 52659U 22053D   25130.57663545 -.00009110  00000+0 -55474-3 0  9991
2 52659  53.2166  74.7943 0000845 101.0082 259.1005 15.08859634165468
STARLINK-4081           
1 52660U 22053E   25130.57297854  .00001015  00000+0  81810-4 0  9997
2 52660  53.2180  74.8607 0001382  87.6834 272.4316 15.08845915165353
STARLINK-4042           
1 52661U 22053F   25130.56930043  .00000827  00000+0  70081-4 0  9999
2 52661  53.2179  74.8762 0001583  94.9086 265.2087 15.08836028165289
STARLINK-4044           
1 52662U 22053G   25130.56193913  .00000885  00000+0  73715-4 0  9998
2 52662  53.2180  74.9114 0001566  81.0886 279.0284 15.08841892165287
STARLINK-4037           
1 52663U 22053H   25130.55826368  .00001737  00000+0  12723-3 0  9993
2 52663  53.2174  74.9307 0001384  90.9653 269.1498 15.08831384165286
STARLINK-4070           
1 52664U 22053J   25130.56562346 -.00000453  00000+0 -10385-4 0  9997
2 52664  53.2173  74.8955 0001501  87.5387 272.5777 15.08838009165280
STARLINK-4064           
1 52665U 22053K   25130.54722380 -.00000244  00000+0  27949-5 0  9994
2 52665  53.2190  74.9820 0001545  96.5564 263.5604 15.08836745165281
STARLINK-4079           
1 52666U 22053L   25130.12029241  .00000258  00000+0  34323-4 0  9992
2 52666  53.2189  76.5064 0001449  94.2747 265.8410 15.08845067165220
STARLINK-4076           
1 52667U 22053M   25130.27857815  .00001090  00000+0  86569-4 0  9999
2 52667  53.2173  76.1846 0001454  94.9040 265.2118 15.08840511165247
STARLINK-4067           
1 52668U 22053N   25130.55090212  .00000525  00000+0  51064-4 0  9995
2 52668  53.2181  74.9641 0001484  97.8198 262.2963 15.08835344165282
STARLINK-3972           
1 52669U 22053P   25130.53249702 -.00000878  00000+0 -37084-4 0  9993
2 52669  53.2175  75.0454 0001280  88.7203 271.3936 15.08847364165275
STARLINK-4075           
1 52670U 22053Q   25130.55458874  .00000177  00000+0  29192-4 0  9990
2 52670  53.2179  75.0117 0001421  90.5783 269.5372 15.08838614164852
STARLINK-4071           
1 52671U 22053R   25130.06514242 -.00000875  00000+0 -36867-4 0  9993
2 52671  53.2165  77.1417 0001514  95.7911 264.3254 15.08845482165200
STARLINK-4073           
1 52672U 22053S   25130.14242403 -.00002956  00000+0 -16769-3 0  9990
2 52672  53.2148  76.7936 0001834  88.3734 271.7468 15.08836530165213
